[{"OBJECT_NAME":"NANOSATC-BR1","OBJECT_ID":"2014-033Q","EPOCH":"2026-03-09T23:35:03.168384","MEAN_MOTION":15.28136801,"ECCENTRICITY":0.00046435,"INCLINATION":98.0845,"RA_OF_ASC_NODE":92.7804,"ARG_OF_PERICENTER":147.6715,"MEAN_ANOMALY":212.4808,"EPHEMERIS_TYPE":0,"CLASSIFICATION_TYPE":"U","NORAD_CAT_ID":40024,"ELEMENT_SET_NO":999,"REV_AT_EPOCH":63881,"BSTAR":0.00074295057,"MEAN_MOTION_DOT":0.00020336,"MEAN_MOTION_DDOT":0},{"OBJECT_NAME":"STARLINK-33765","OBJECT_ID":"2025-070P","EPOCH":"2026-03-09T13:10:35.540544","MEAN_MOTION":15.27581282,"ECCENTRICITY":9.3e-5,"INCLINATION":42.9956,"RA_OF_ASC_NODE":260.6993,"ARG_OF_PERICENTER":247.9852,"MEAN_ANOMALY":112.0901,"EPHEMERIS_TYPE":0,"CLASSIFICATION_TYPE":"U","NORAD_CAT_ID":63473,"ELEMENT_SET_NO":999,"REV_AT_EPOCH":5295,"BSTAR":0.00088911705,"MEAN_MOTION_DOT":0.00024286,"MEAN_MOTION_DDOT":0}]
